QIANFAN-125             
1 68652U 26075S   26134.46399491 -.02144209  00000+0 -19713+1 0  9992
2 68652  88.9875 324.4969 0016910 117.8129 242.4759 13.87068709  5228
QIANFAN-126             
1 68653U 26075T   26134.70083017  .00000054  00000+0  30787-4 0  9997
2 68653  88.9960 324.4816 0012614 105.3483 254.9087 13.92938780  5264
HULIANWANG DIGUI-164    
1 68656U 26076A   26134.81036928 -.00000470  00000+0 -79719-3 0  9993
2 68656  86.4969  55.2678 0004172  80.0471 280.1147 13.47275458  4937
HULIANWANG DIGUI-165    
1 68657U 26076B   26134.73110058  .00000081  00000+0  10634-3 0  9999
2 68657  86.4993  55.3018 0002271  91.5175 268.6233 13.47947439  4921
HULIANWANG DIGUI-166    
1 68658U 26076C   26134.79615435 -.00000255  00000+0 -44188-3 0  9991
2 68658  86.4936  55.2439 0001940  57.2175 302.9159 13.47673468  4934
HULIANWANG DIGUI-167    
1 68659U 26076D   26134.79439018 -.00000018  00000+0 -54685-4 0  9994
2 68659  86.4990  55.2699 0002519  74.1632 285.9793 13.48107283  4934
HULIANWANG DIGUI-168    
1 68660U 26076E   26134.78849522 -.00000320  00000+0 -54234-3 0  9995
2 68660  86.4973  55.2576 0001376 119.3097 240.8188 13.48289230  4928
STARLINK-37195          
1 68662U 26077A   26134.86893252  .00012561  00000+0  23262-3 0  9991
2 68662  97.2926   6.4892 0001425 141.6565 218.4788 15.49142715  5297
STARLINK-37222          
1 68663U 26077B   26134.91670139  .00042101  00000+0  13013-2 0  9990
2 68663  97.2844   6.5963 0001479 106.5151 285.3193 15.33393113  6137
STARLINK-37153          
1 68664U 26077C   26134.91670139 -.02195296  00000+0 -60423-1 0  9995
2 68664  97.2853   6.5889 0001711  89.6146 267.2746 15.40442979  6135
STARLINK-37171          
1 68665U 26077D   26134.62387751  .00032679  00000+0  59938-3 0  9991
2 68665  97.2852   6.2130 0001966  78.7733 281.3739 15.49219078  5256
STARLINK-37109          
1 68666U 26077E   26134.91670139 -.01634105  00000+0 -53789-1 0  9990
2 68666  97.2844   6.6153 0002568 132.2765 289.1168 15.34512103  6136
STARLINK-36295          
1 68667U 26077F   26134.91670139 -.02210343  00000+0 -67521-1 0  9995
2 68667  97.2864   6.6225 0002411  93.9608 337.1413 15.37285471  6130
STARLINK-37221          
1 68668U 26077G   26134.39838734  .00033974  00000+0  62334-3 0  9993
2 68668  97.2832   6.0637 0002554  78.1767 281.9770 15.49200597  5226
STARLINK-37302          
1 68669U 26077H   26134.91670139  .00034579  00000+0  10709-2 0  9995
2 68669  97.2849   6.6321 0001127  89.1473  17.7831 15.33373056  6130
STARLINK-37298          
1 68670U 26077J   26134.91670139  .00031791  00000+0  98392-3 0  9995
2 68670  97.2848   6.6192 0002238  95.9298 355.9168 15.33411191  6033
STARLINK-37224          
1 68671U 26077K   26134.39157397  .00025138  00000+0  46238-3 0  9994
2 68671  97.2862   6.0701 0002454  67.7307 292.4205 15.49187497  5221
STARLINK-37296          
1 68672U 26077L   26134.22368176  .00028968  00000+0  53221-3 0  9990
2 68672  97.2861   5.8368 0002376  95.7650 264.3872 15.49193835  5199
STARLINK-37316          
1 68673U 26077M   26134.91670139  .00024308  00000+0  75351-3 0  9994
2 68673  97.2848   6.6455 0001635 107.2328  44.6923 15.33416389  6135
STARLINK-36672          
1 68674U 26077N   26134.22091095  .00023832  00000+0  43824-3 0  9998
2 68674  97.2863   5.8383 0001341  98.5190 261.6213 15.49207667  5199
STARLINK-36669          
1 68675U 26077P   26134.91670139  .00030763  00000+0  95247-3 0  9994
2 68675  97.2843   6.6606 0001408 106.1415  75.8038 15.33406519  6130
STARLINK-37312          
1 68676U 26077Q   26134.91670139 -.02154673  00000+0 -59035-1 0  9999
2 68676  97.2852   6.6838 0001830 117.6653 115.1007 15.41102830  6040
STARLINK-36168          
1 68677U 26077R   26134.60221536  .00026403  00000+0  48491-3 0  9990
2 68677  97.2876   6.2427 0001742  88.3842 271.7609 15.49223448  5259
STARLINK-37122          
1 68678U 26077S   26134.91670139 -.02162678  00000+0 -59833-1 0  9991
2 68678  97.2851   6.6752 0001952 105.9989  98.5872 15.40825278  6123
STARLINK-37310          
1 68679U 26077T   26134.39207756  .00029995  00000+0  55075-3 0  9991
2 68679  97.2861   6.0700 0002150  92.8808 267.2690 15.49204835  5229
STARLINK-37306          
1 68680U 26077U   26134.61961183 -.00342801  00000+0 -67073-2 0  9995
2 68680  97.2848   6.3725 0002841 114.3496 245.8052 15.48630946  5269
STARLINK-37307          
1 68681U 26077V   26134.88416048 -.00198933  00000+0 -37959-2 0  9995
2 68681  97.2822   6.6217 0004017 328.3883  31.7127 15.48821749  5308
STARLINK-37300          
1 68682U 26077W   26134.91670139 -.02196014  00000+0 -66303-1 0  9997
2 68682  97.2843   6.7330 0001555  81.1340 258.8128 15.37630648  5986
STARLINK-37304          
1 68683U 26077X   26134.94512227  .00038983  00000+0  71392-3 0  9996
2 68683  97.2844   6.6942 0001424  87.7298 272.4117 15.49227769  5311
STARLINK-37287          
1 68684U 26077Y   26134.61772814  .00031972  00000+0  58659-3 0  9993
2 68684  97.2872   6.3723 0002450  86.5464 273.6068 15.49213711  5263
STARLINK-36278          
1 68685U 26077Z   26134.38277794  .00242078  00000+0  15739-2 0  9997
2 68685  97.2845   6.5430 0002004  74.3490 285.7997 15.75253510  5254
STARLINK-37213          
1 68686U 26077AA  26134.39892215  .00050925  00000+0  93128-3 0  9997
2 68686  97.2839   6.0615 0002813  78.0435 282.1131 15.49207161  5226
HJS-8A                  
1 68687U 26078A   26121.56499271  .00000303  00000+0  35284-3 0  9993
2 68687  86.4967 298.5999 0001401  91.1620 268.9698 13.65394683  2731
CYGNUS NG-24            
1 68689U 26079A   26134.65013167  .00004878  00000+0  95926-4 0  9997
2 68689  51.6311 106.1165 0007514  58.4526 301.7195 15.49215603  5347
JILIN GAOFEN OBJECT A   
1 68691U 26080A   26131.80743294  .00000474  00000+0  34430-4 0  9998
2 68691  97.6624 207.3939 0012687 181.4233 178.6961 15.08550837  4177
JILIN GAOFEN OBJECT B   
1 68692U 26080B   26131.85708493  .00001994  00000+0  12811-3 0  9992
2 68692  97.6597 207.4737 0015746 180.0003 180.1228 15.09523009  4180
JILIN GAOFEN OBJECT C   
1 68693U 26080C   26131.80550576  .00000424  00000+0  31219-4 0  9996
2 68693  97.6610 207.3919 0014304 164.9908 195.1747 15.08534565  4171
JILIN GAOFEN OBJECT D   
1 68694U 26080D   26134.97065675  .00003672  00000+0  23169-3 0  9991
2 68694  97.6667 210.6136 0016144 171.4058 188.7450 15.09639539  4633
JILIN GAOFEN OBJECT E   
1 68695U 26080E   26134.97040260  .00003708  00000+0  23378-3 0  9997
2 68695  97.6648 210.6067 0016455 171.2246 188.9274 15.09652745  4616
JILIN GAOFEN OBJECT F   
1 68696U 26080F   26134.96927677  .00003757  00000+0  23652-3 0  9992
2 68696  97.6619 210.5973 0015473 173.3453 186.7985 15.09708384  4618
JILIN GAOFEN OBJECT G   
1 68697U 26080G   26134.96737372  .00003846  00000+0  24141-3 0  9997
2 68697  97.6663 210.6164 0015955 174.3123 185.8290 15.09802493  4616
JILIN GAOFEN OBJECT H   
1 68698U 26080H   26131.85166096  .00002753  00000+0  17393-3 0  9999
2 68698  97.6649 207.4974 0015442 185.2575 174.8494 15.09822637  4141
STARLINK-37358          
1 68699U 26081A   26134.89638149  .00320052  00000+0  15644-2 0  9992
2 68699  53.1576  89.1370 0001037 334.5641  25.5331 15.80890914  4842
STARLINK-37334          
1 68700U 26081B   26134.95885311  .00175971  00000+0  87596-3 0  9991
2 68700  53.1561  88.8150 0001308  73.8283 286.2883 15.80899807  4856
STARLINK-36955          
1 68701U 26081C   26134.89487227  .00257691  00000+0  12661-2 0  9999
2 68701  53.1576  89.1275 0002318 110.6875 249.4397 15.80948746  4841
STARLINK-36275          
1 68702U 26081D   26134.91670139 -.01924959  00000+0 -18550-1 0  9992
2 68702  53.1599  89.1327 0000957 103.4399 323.4858 15.68892487  6138
STARLINK-36271          
1 68703U 26081E   26134.95677120 -.00789256  00000+0 -46185-2 0  9998
2 68703  53.1571  88.8016 0001914 331.4946  28.5971 15.79689710  4856
STARLINK-37356          
1 68704U 26081F   26134.89266671  .00201613  00000+0  10075-2 0  9990
2 68704  53.1560  89.1126 0001916 192.7336 167.3639 15.80739953  4843
STARLINK-35369          
1 68705U 26081G   26134.57577405  .00262678  00000+0  12892-2 0  9993
2 68705  53.1559  90.6899 0000739 307.8127  52.2828 15.80958036  4796
STARLINK-37319          
1 68706U 26081H   26134.91670139 -.01907283  00000+0 -23000-1 0  9993
2 68706  53.1603  89.2229 0000949 104.3856 277.9310 15.63346820  6045
STARLINK-37112          
1 68707U 26081J   26134.91670139 -.01928681  00000+0 -18424-1 0  9993
2 68707  53.1594  89.0930 0001161  97.2263 348.9565 15.69106366  6047
STARLINK-37340          
1 68708U 26081K   26134.89057486  .00306408  00000+0  15419-2 0  9991
2 68708  53.1563  89.0979 0004079 189.5042 170.5904 15.80289502  4847
STARLINK-37303          
1 68709U 26081L   26134.91670139 -.01919650  00000+0 -13106-1 0  9993
2 68709  53.1587  88.9565 0001164  93.4882  59.7239 15.77367938  4441
STARLINK-36859          
1 68710U 26081M   26134.95201320 -.00787668  00000+0 -49018-2 0  9994
2 68710  53.1574  88.7674 0002256  52.0894 308.0331 15.78334030  4851
STARLINK-37320          
1 68711U 26081N   26134.88795871 -.00755328  00000+0 -46360-2 0  9991
2 68711  53.1577  89.0799 0002484 176.4431 183.6609 15.78552233  4849
STARLINK-37318          
1 68712U 26081P   26134.91670139 -.01913322  00000+0 -13282-1 0  9992
2 68712  53.1589  88.9324 0001207 109.9816  54.8302 15.76986745  4335
STARLINK-37305          
1 68713U 26081Q   26134.88587840  .00425566  00000+0  20317-2 0  9998
2 68713  53.1565  89.0662 0002090 138.2958 221.8224 15.81123085  4841
STARLINK-37225          
1 68714U 26081R   26134.91670139 -.01918274  00000+0 -13913-1 0  9996
2 68714  53.1594  88.9226 0001212  96.7823  72.9071 15.76016245  4390
STARLINK-37322          
1 68715U 26081S   26134.88437787  .00391698  00000+0  18768-2 0  9999
2 68715  53.1570  89.0575 0002518 136.9226 223.1995 15.81134280  4849
